HAWK-9A                 
1 59446U 24066E   26068.43100697  .00002638  00000+0  23459-3 0  9992
2 59446  45.6088  72.7153 0003627 244.6286 115.4219 14.98777479104861
STARLINK-34007          
1 63868U 25094E   26068.85516420 -.00011983  00000+0 -99610-3 0  9995
2 63868  70.0017 234.2102 0004582 277.8261  82.2378 14.98405216 47229
